[{"OBJECT_NAME":"STARLINK-31706","OBJECT_ID":"2024-065S","EPOCH":"2026-03-09T19:47:24.559584","MEAN_MOTION":15.30203305,"ECCENTRICITY":0.00011469,"INCLINATION":53.1602,"RA_OF_ASC_NODE":282.9322,"ARG_OF_PERICENTER":104.9711,"MEAN_ANOMALY":255.1417,"EPHEMERIS_TYPE":0,"CLASSIFICATION_TYPE":"U","NORAD_CAT_ID":59437,"ELEMENT_SET_NO":999,"REV_AT_EPOCH":10892,"BSTAR":8.7188047e-5,"MEAN_MOTION_DOT":2.224e-5,"MEAN_MOTION_DDOT":0},{"OBJECT_NAME":"KUIPER-00175","OBJECT_ID":"2025-301C","EPOCH":"2026-03-09T23:30:37.840032","MEAN_MOTION":15.30996371,"ECCENTRICITY":0.00022792,"INCLINATION":51.8781,"RA_OF_ASC_NODE":63.6978,"ARG_OF_PERICENTER":50.5695,"MEAN_ANOMALY":309.549,"EPHEMERIS_TYPE":0,"CLASSIFICATION_TYPE":"U","NORAD_CAT_ID":67135,"ELEMENT_SET_NO":999,"REV_AT_EPOCH":1385,"BSTAR":0.00066732304,"MEAN_MOTION_DOT":0.00019968,"MEAN_MOTION_DDOT":0}]
